{"type": "FeatureCollection", "features": [ {"type": "Feature", "properties": {"norad_id": 66608, "name": "STARLINK-36036", "group": "last-30-days", "lat": -28.161575152856265, "lon": 150.53338236579629, "alt_km": 417.47665952258376, "timestamp": "2025-12-13T22:39:28.444457+00:00", "meta": {"OBJECT_NAME": "STARLINK-36036", "OBJECT_ID": "2025-270W", "EPOCH": "2025-12-13T06:00:02.000160", "MEAN_MOTION": 15.50701756, "ECCENTRICITY": 0.0001692, "INCLINATION": 43, "RA_OF_ASC_NODE": 189.6572, "ARG_OF_PERICENTER": 267.8084, "MEAN_ANOMALY": 129.6561, "EPHEMERIS_TYPE": 0, "CLASSIFICATION_TYPE": "U", "NORAD_CAT_ID": 66608, "ELEMENT_SET_NO": 999, "REV_AT_EPOCH": 432, "BSTAR": -0.0044667368, "MEAN_MOTION_DOT": -0.00255153, "MEAN_MOTION_DDOT": 0}, "tle": {"line1": "1 66608U 25270W   25347.25002315 -.00255153  00000+0 -44667-2 0  9992", "line2": "2 66608  43.0000 189.6572 0001692 267.8084 129.6561 15.50701756  4322"}}, "geometry": {"type": "Point", "coordinates": [150.53338236579629, -28.161575152856265]}}, {"type": "Feature", "properties": {"norad_id": 66609, "name": "STARLINK-36034", "group": "last-30-days", "lat": -27.07844208513035, "lon": 152.31876047960995, "alt_km": 417.4058418993618, "timestamp": "2025-12-13T22:39:28.444467+00:00", "meta": {"OBJECT_NAME": "STARLINK-36034", "OBJECT_ID": "2025-270X", "EPOCH": "2025-12-13T06:00:02.000160", "MEAN_MOTION": 15.5069554, "ECCENTRICITY": 0.00018075, "INCLINATION": 42.9999, "RA_OF_ASC_NODE": 189.6531, "ARG_OF_PERICENTER": 264.8071, "MEAN_ANOMALY": 134.5767, "EPHEMERIS_TYPE": 0, "CLASSIFICATION_TYPE": "U", "NORAD_CAT_ID": 66609, "ELEMENT_SET_NO": 999, "REV_AT_EPOCH": 432, "BSTAR": -0.0043084051, "MEAN_MOTION_DOT": -0.00246344, "MEAN_MOTION_DDOT": 0}, "tle": {"line1": "1 66609U 25270X   25347.25002315 -.00246344  00000+0 -43084-2 0  9997", "line2": "2 66609  42.9999 189.6531 0001807 264.8071 134.5767 15.50695540  4320"}}, "geometry": {"type": "Point", "coordinates": [152.31876047960995, -27.07844208513035]}}, {"type": "Feature", "properties": {"norad_id": 66610, "name": "STARLINK-35680", "group": "last-30-days", "lat": -26.013723901339166, "lon": 154.0054698166967, "alt_km": 417.56945372831706, "timestamp": "2025-12-13T22:39:28.444479+00:00", "meta": {"OBJECT_NAME": "STARLINK-35680", "OBJECT_ID": "2025-270Y", "EPOCH": "2025-12-13T06:00:02.000160", "MEAN_MOTION": 15.50762719, "ECCENTRICITY": 0.00015952, "INCLINATION": 42.9999, "RA_OF_ASC_NODE": 189.648, "ARG_OF_PERICENTER": 277.7378, "MEAN_ANOMALY": 123.5503, "EPHEMERIS_TYPE": 0, "CLASSIFICATION_TYPE": "U", "NORAD_CAT_ID": 66610, "ELEMENT_SET_NO": 999, "REV_AT_EPOCH": 459, "BSTAR": -0.0064265242, "MEAN_MOTION_DOT": -0.00362795, "MEAN_MOTION_DDOT": 0}, "tle": {"line1": "1 66610U 25270Y   25347.25002315 -.00362795  00000+0 -64265-2 0  9992", "line2": "2 66610  42.9999 189.6480 0001595 277.7378 123.5503 15.50762719  4590"}}, "geometry": {"type": "Point", "coordinates": [154.0054698166967, -26.013723901339166]}}, {"type": "Feature", "properties": {"norad_id": 66611, "name": "STARLINK-35583", "group": "last-30-days", "lat": -24.857884304677786, "lon": 155.76984837321515, "alt_km": 417.1640950988631, "timestamp": "2025-12-13T22:39:28.444489+00:00", "meta": {"OBJECT_NAME": "STARLINK-35583", "OBJECT_ID": "2025-270Z", "EPOCH": "2025-12-13T06:00:02.000160", "MEAN_MOTION": 15.50714366, "ECCENTRICITY": 0.00019202, "INCLINATION": 43, "RA_OF_ASC_NODE": 189.6434, "ARG_OF_PERICENTER": 273.4577, "MEAN_ANOMALY": 129.7536, "EPHEMERIS_TYPE": 0, "CLASSIFICATION_TYPE": "U", "NORAD_CAT_ID": 66611, "ELEMENT_SET_NO": 999, "REV_AT_EPOCH": 459, "BSTAR": -0.0047836279, "MEAN_MOTION_DOT": -0.00272758, "MEAN_MOTION_DDOT": 0}, "tle": {"line1": "1 66611U 25270Z   25347.25002315 -.00272758  00000+0 -47836-2 0  9997", "line2": "2 66611  43.0000 189.6434 0001920 273.4577 129.7536 15.50714366  4590"}}, "geometry": {"type": "Point", "coordinates": [155.76984837321515, -24.857884304677786]}}, {"type": "Feature", "properties": {"norad_id": 66612, "name": "STARLINK-36039", "group": "last-30-days", "lat": -41.7013823452267, "lon": 112.7028098198156, "alt_km": 446.02394202344294, "timestamp": "2025-12-13T22:39:28.444500+00:00", "meta": {"OBJECT_NAME": "STARLINK-36039", "OBJECT_ID": "2025-270AA", "EPOCH": "2025-12-13T06:00:02.000160", "MEAN_MOTION": 15.43406934, "ECCENTRICITY": 0.00015737, "INCLINATION": 42.9997, "RA_OF_ASC_NODE": 189.687, "ARG_OF_PERICENTER": 258.1651, "MEAN_ANOMALY": 126.8652, "EPHEMERIS_TYPE": 0, "CLASSIFICATION_TYPE": "U", "NORAD_CAT_ID": 66612, "ELEMENT_SET_NO": 999, "REV_AT_EPOCH": 448, "BSTAR": -0.043390357, "MEAN_MOTION_DOT": -0.01791267, "MEAN_MOTION_DDOT": 0}, "tle": {"line1": "1 66612U 25270AA  25347.25002315 -.01791267  00000+0 -43390-1 0  9990", "line2": "2 66612  42.9997 189.6870 0001573 258.1651 126.8652 15.43406934  4481"}}, "geometry": {"type": "Point", "coordinates": [112.7028098198156, -41.7013823452267]}}, {"type": "Feature", "properties": {"norad_id": 66613, "name": "STARLINK-36037", "group": "last-30-days", "lat": -34.13224525219123, "lon": 138.95257509187496, "alt_km": 437.9475686151418, "timestamp": "2025-12-13T22:39:28.444512+00:00", "meta": {"OBJECT_NAME": "STARLINK-36037", "OBJECT_ID": "2025-270AB", "EPOCH": "2025-12-13T06:00:02.000160", "MEAN_MOTION": 15.46389746, "ECCENTRICITY": 0.00019317, "INCLINATION": 42.9999, "RA_OF_ASC_NODE": 189.6509, "ARG_OF_PERICENTER": 264.039, "MEAN_ANOMALY": 136.014, "EPHEMERIS_TYPE": 0, "CLASSIFICATION_TYPE": "U", "NORAD_CAT_ID": 66613, "ELEMENT_SET_NO": 999, "REV_AT_EPOCH": 448, "BSTAR": -0.045159232, "MEAN_MOTION_DOT": -0.02036403, "MEAN_MOTION_DDOT": 0}, "tle": {"line1": "1 66613U 25270AB  25347.25002315 -.02036403  00000+0 -45159-1 0  9991", "line2": "2 66613  42.9999 189.6509 0001931 264.0390 136.0140 15.46389746  4486"}}, "geometry": {"type": "Point", "coordinates": [138.95257509187496, -34.13224525219123]}}, {"type": "Feature", "properties": {"norad_id": 66614, "name": "STARLINK-36040", "group": "last-30-days", "lat": -20.134283572843763, "lon": 162.393754920596, "alt_km": 416.70216938460726, "timestamp": "2025-12-13T22:39:28.444526+00:00", "meta": {"OBJECT_NAME": "STARLINK-36040", "OBJECT_ID": "2025-270AC", "EPOCH": "2025-12-13T06:00:02.000160", "MEAN_MOTION": 15.50692353, "ECCENTRICITY": 0.00017362, "INCLINATION": 43, "RA_OF_ASC_NODE": 189.623, "ARG_OF_PERICENTER": 275.5249, "MEAN_ANOMALY": 135.3508, "EPHEMERIS_TYPE": 0, "CLASSIFICATION_TYPE": "U", "NORAD_CAT_ID": 66614, "ELEMENT_SET_NO": 999, "REV_AT_EPOCH": 432, "BSTAR": -0.0034028276, "MEAN_MOTION_DOT": -0.00195856, "MEAN_MOTION_DDOT": 0}, "tle": {"line1": "1 66614U 25270AC  25347.25002315 -.00195856  00000+0 -34028-2 0  9992", "line2": "2 66614  43.0000 189.6230 0001736 275.5249 135.3508 15.50692353  4325"}}, "geometry": {"type": "Point", "coordinates": [162.393754920596, -20.134283572843763]}}, {"type": "Feature", "properties": {"norad_id": 66615, "name": "STARLINK-35988", "group": "last-30-days", "lat": -23.222067860488362, "lon": 158.16012595927552, "alt_km": 424.5194997736471, "timestamp": "2025-12-13T22:39:28.444569+00:00", "meta": {"OBJECT_NAME": "STARLINK-35988", "OBJECT_ID": "2025-270AD", "EPOCH": "2025-12-13T06:00:02.000160", "MEAN_MOTION": 15.50891298, "ECCENTRICITY": 0.00016861, "INCLINATION": 43.0002, "RA_OF_ASC_NODE": 189.6277, "ARG_OF_PERICENTER": 272.8872, "MEAN_ANOMALY": 136.0616, "EPHEMERIS_TYPE": 0, "CLASSIFICATION_TYPE": "U", "NORAD_CAT_ID": 66615, "ELEMENT_SET_NO": 999, "REV_AT_EPOCH": 432, "BSTAR": -0.039632149, "MEAN_MOTION_DOT": -0.02089504, "MEAN_MOTION_DDOT": 0}, "tle": {"line1": "1 66615U 25270AD  25347.25002315 -.02089504  00000+0 -39632-1 0  9992", "line2": "2 66615  43.0002 189.6277 0001686 272.8872 136.0616 15.50891298  4322"}}, "geometry": {"type": "Point", "coordinates": [158.16012595927552, -23.222067860488362]}}, {"type": "Feature", "properties": {"norad_id": 66616, "name": "STARLINK-35391", "group": "last-30-days", "lat": -18.984050218853486, "lon": 163.8940176246318, "alt_km": 417.0254752294986, "timestamp": "2025-12-13T22:39:28.444586+00:00", "meta": {"OBJECT_NAME": "STARLINK-35391", "OBJECT_ID": "2025-270AE", "EPOCH": "2025-12-13T06:00:02.000160", "MEAN_MOTION": 15.50724723, "ECCENTRICITY": 0.00018285, "INCLINATION": 42.9999, "RA_OF_ASC_NODE": 189.6192, "ARG_OF_PERICENTER": 269.036, "MEAN_ANOMALY": 143.7582, "EPHEMERIS_TYPE": 0, "CLASSIFICATION_TYPE": "U", "NORAD_CAT_ID": 66616, "ELEMENT_SET_NO": 999, "REV_AT_EPOCH": 459, "BSTAR": -0.0051330404, "MEAN_MOTION_DOT": -0.00292049, "MEAN_MOTION_DDOT": 0}, "tle": {"line1": "1 66616U 25270AE  25347.25002315 -.00292049  00000+0 -51330-2 0  9991", "line2": "2 66616  42.9999 189.6192 0001828 269.0360 143.7582 15.50724723  4594"}}, "geometry": {"type": "Point", "coordinates": [163.8940176246318, -18.984050218853486]}}, {"type": "Feature", "properties": {"norad_id": 66617, "name": "STARLINK-35940", "group": "last-30-days", "lat": -24.022314825873117, "lon": 161.95302688748055, "alt_km": 422.38458300725324, "timestamp": "2025-12-13T22:39:28.444597+00:00", "meta": {"OBJECT_NAME": "STARLINK-35940", "OBJECT_ID": "2025-271A", "EPOCH": "2025-12-13T06:00:02.000160", "MEAN_MOTION": 15.4933644, "ECCENTRICITY": 6.504e-05, "INCLINATION": 53.1599, "RA_OF_ASC_NODE": 184.7934, "ARG_OF_PERICENTER": 89.1326, "MEAN_ANOMALY": 327.0334, "EPHEMERIS_TYPE": 0, "CLASSIFICATION_TYPE": "U", "NORAD_CAT_ID": 66617, "ELEMENT_SET_NO": 999, "REV_AT_EPOCH": 432, "BSTAR": -0.00030617627, "MEAN_MOTION_DOT": -0.00017454, "MEAN_MOTION_DDOT": 0}, "tle": {"line1": "1 66617U 25271A   25347.25002315 -.00017454  00000+0 -30618-3 0  9995", "line2": "2 66617  53.1599 184.7934 0000650  89.1326 327.0334 15.49336440  4326"}}, "geometry": {"type": "Point", "coordinates": [161.95302688748055, -24.022314825873117]}}]}